TEVEL2-3                
1 63218U 25052J   26159.23549191  .00015170  00000+0  46859-3 0  9999
2 63218  97.3889  55.2041 0004279 131.4338 228.7272 15.33621807 68727
TEVEL2-2                
1 63219U 25052K   26159.17564551  .00015378  00000+0  47571-3 0  9992
2 63219  97.3886  55.1258 0004196 132.1284 228.0316 15.33574364 68716
TEVEL2-9                
1 63237U 25052AD  26159.20683054  .00013734  00000+0  45172-3 0  9995
2 63237  97.3948  54.5513 0006909 156.1696 203.9867 15.31621079 68659
TEVEL2-7                
1 63238U 25052AE  26159.24603484  .00013747  00000+0  45614-3 0  9994
2 63238  97.3948  54.5102 0007005 156.9865 203.1691 15.31335451 68651
TEVEL2-8                
1 63239U 25052AF  26159.45022968  .00013909  00000+0  46163-3 0  9990
2 63239  97.3950  54.6910 0007062 156.6692 203.4871 15.31323830 68685
INNOSAT 16 (RS92S7)     
1 64878U 25155C   26159.47427168  .00005338  00000+0  21425-3 0  9998
2 64878  97.4558 126.6305 0009503 206.9551 153.1194 15.25364822 79346
GEOSCAN 6 (RS92S6)      
1 64879U 25155D   26159.48356372  .00010056  00000+0  34870-3 0  9999
2 64879  97.4552 128.0029 0007167 192.2278 167.8790 15.29989513 79435
GEOSCAN 1 (RS92S1)      
1 64880U 25155E   26159.48935890  .00010808  00000+0  36788-3 0  9994
2 64880  97.4548 128.1492 0007099 191.8929 168.2145 15.30572336 79442
239ALFEROV (RS61S)      
1 64881U 25155F   26159.47127683  .00012671  00000+0  40318-3 0  9991
2 64881  97.4549 128.6636 0006776 188.3127 171.8004 15.32706504 79476
GEOSCAN 2 (RS92S2)      
1 64890U 25155Q   26159.48458375  .00010572  00000+0  35694-3 0  9996
2 64890  97.4547 128.2935 0006977 176.9567 183.1717 15.30843727 79458
GEOSCAN 5 (RS92S5)      
1 64891U 25155R   26159.46211019  .00012847  00000+0  40481-3 0  9994
2 64891  97.4541 128.7885 0005458 191.2948 168.8172 15.33024929 79484
GEOSCAN 4 (RS92S4)      
1 64892U 25155S   26159.44716376  .00012815  00000+0  40192-3 0  9993
2 64892  97.4545 128.8194 0005512 191.7981 168.3133 15.33174122 79489
GEOSCAN 3 (RS92S3)      
1 64893U 25155T   26159.52423995  .00017812  00000+0  52437-3 0  9992
2 64893  97.4534 129.3021 0005420 189.0622 171.0524 15.35107936 79524
INNOSAT 3 (RS92S0)      
1 64894U 25155U   26159.49593397  .00033844  00000+0  76175-3 0  9991
2 64894  97.4485 130.7879 0004913 173.7217 186.4093 15.43217848 79628
KNACKSAT-2              
1 67683U 98067XZ  26158.80293921  .00048726  00000+0  61258-3 0  9997
2 67683  51.6303 341.6515 0010362 174.2130 185.8984 15.59121118 18810
